start=new Date('2022-10-10T00:00:00.000Z').valueOf();
sats=[{"DECAY_DATE":null,"REV_AT_EPOCH":"8837","COUNTRY_CODE":"US","OBJECT_ID":"2021-021E","SEMIMAJOR_AXIS":"6925.363","TLE_LINE1":"1 47864U 21021E   22282.79453737 -.00000204  00000-0  52044-5 0  9993","OBJECT_NAME":"STARLINK-2304","ARG_OF_PERICENTER":"91.0290","SITE":"AFETR","PERIOD":"95.592","REF_FRAME":"TEME","EPHEMERIS_TYPE":"0","BSTAR":"0.00000520440000","INCLINATION":"53.0537","OBJECT_TYPE":"PAYLOAD","RCS_SIZE":"LARGE","MEAN_ANOMALY":"269.0842","MEAN_ELEMENT_THEORY":"SGP4","CLASSIFICATION_TYPE":"U","ELEMENT_SET_NO":"999","TLE_LINE2":"2 47864  53.0537  99.2001 0001245  91.0290 269.0842 15.06395228 88376","MEAN_MOTION_DOT":"-0.00000204","LAUNCH_DATE":"2021-03-14","FILE":"3598879","ECCENTRICITY":"0.00012450","NORAD_CAT_ID":"47864","TIME_SYSTEM":"UTC","EPOCH":"2022-10-09T19:04:08.028768","PERIAPSIS":"546.366","RA_OF_ASC_NODE":"99.2001","APOAPSIS":"548.090","CENTER_NAME":"EARTH","MEAN_MOTION_DDOT":"0.0000000000000","MEAN_MOTION":"15.06395228","GP_ID":"214602760"},{"REV_AT_EPOCH":"8836","DECAY_DATE":null,"OBJECT_ID":"2021-021F","COUNTRY_CODE":"US","SEMIMAJOR_AXIS":"6925.355","TLE_LINE1":"1 47865U 21021F   22282.78898032  .00000727  00000-0  67729-4 0  9998","ARG_OF_PERICENTER":"98.4308","OBJECT_NAME":"STARLINK-2310","SITE":"AFETR","PERIOD":"95.592","BSTAR":"0.00006772900000","EPHEMERIS_TYPE":"0","REF_FRAME":"TEME","RCS_SIZE":"LARGE","OBJECT_TYPE":"PAYLOAD","INCLINATION":"53.0561","MEAN_ELEMENT_THEORY":"SGP4","MEAN_ANOMALY":"261.6831","ELEMENT_SET_NO":"999","CLASSIFICATION_TYPE":"U","TIME_SYSTEM":"UTC","FILE":"3598879","NORAD_CAT_ID":"47865","ECCENTRICITY":"0.00013160","MEAN_MOTION_DOT":"0.00000727","LAUNCH_DATE":"2021-03-14","TLE_LINE2":"2 47865  53.0561 109.1748 0001316  98.4308 261.6831 15.06398044 88367","EPOCH":"2022-10-09T18:56:07.899648","PERIAPSIS":"546.308","RA_OF_ASC_NODE":"109.1748","MEAN_MOTION_DDOT":"0.0000000000000","CENTER_NAME":"EARTH","APOAPSIS":"548.131","GP_ID":"214601511","MEAN_MOTION":"15.06398044"},{"EPOCH":"2022-10-09T19:02:47.377824","FILE":"3598879","NORAD_CAT_ID":"47866","ECCENTRICITY":"0.00013650","TIME_SYSTEM":"UTC","TLE_LINE2":"2 47866  53.0531 109.1580 0001365  79.7529 280.3614 15.06410052 88417","LAUNCH_DATE":"2021-03-14","MEAN_MOTION_DOT":"0.00005216","CLASSIFICATION_TYPE":"U","ELEMENT_SET_NO":"999","MEAN_ANOMALY":"280.3614","MEAN_ELEMENT_THEORY":"SGP4","MEAN_MOTION":"15.06410052","GP_ID":"214602257","CENTER_NAME":"EARTH","MEAN_MOTION_DDOT":"0.0000000000000","APOAPSIS":"548.128","RA_OF_ASC_NODE":"109.1580","PERIAPSIS":"546.237","ARG_OF_PERICENTER":"79.7529","TLE_LINE1":"1 47866U 21021G   22282.79360391  .00005216  00000-0  36867-3 0  9998","SEMIMAJOR_AXIS":"6925.318","OBJECT_NAME":"STARLINK-2320","OBJECT_ID":"2021-021G","COUNTRY_CODE":"US","REV_AT_EPOCH":"8841","DECAY_DATE":null,"RCS_SIZE":"MEDIUM","INCLINATION":"53.0531","OBJECT_TYPE":"PAYLOAD","EPHEMERIS_TYPE":"0","BSTAR":"0.00036867000000","REF_FRAME":"TEME","PERIOD":"95.592","SITE":"AFETR"},{"ELEMENT_SET_NO":"999","CLASSIFICATION_TYPE":"U","MEAN_ELEMENT_THEORY":"SGP4","MEAN_ANOMALY":"266.2788","EPOCH":"2022-10-09T18:53:30.238656","FILE":"3598879","ECCENTRICITY":"0.00014280","NORAD_CAT_ID":"47867","TIME_SYSTEM":"UTC","LAUNCH_DATE":"2021-03-14","MEAN_MOTION_DOT":"-0.00000183","TLE_LINE2":"2 47867  53.0542  99.1877 0001428  93.8364 266.2788 15.06403474 88359","RA_OF_ASC_NODE":"99.1877","PERIAPSIS":"546.214","GP_ID":"214603006","MEAN_MOTION":"15.06403474","MEAN_MOTION_DDOT":"0.0000000000000","CENTER_NAME":"EARTH","APOAPSIS":"548.192","OBJECT_ID":"2021-021H","COUNTRY_CODE":"US","REV_AT_EPOCH":"8835","DECAY_DATE":null,"OBJECT_NAME":"STARLINK-2321","TLE_LINE1":"1 47867U 21021H   22282.78715554 -.00000183  00000-0  65797-5 0  9998","SEMIMAJOR_AXIS":"6925.338","ARG_OF_PERICENTER":"93.8364","PERIOD":"95.592","SITE":"AFETR","RCS_SIZE":"LARGE","OBJECT_TYPE":"PAYLOAD","INCLINATION":"53.0542","BSTAR":"0.00000657970000","EPHEMERIS_TYPE":"0","REF_FRAME":"TEME"},{"CLASSIFICATION_TYPE":"U","ELEMENT_SET_NO":"999","MEAN_ANOMALY":"277.8935","MEAN_ELEMENT_THEORY":"SGP4","EPOCH":"2022-10-09T17:08:41.109216","NORAD_CAT_ID":"47868","FILE":"3598879","TIME_SYSTEM":"UTC","ECCENTRICITY":"0.00015050","TLE_LINE2":"2 47868  53.0563  49.5213 0001505  82.2225 277.8935 15.06384640 89097","LAUNCH_DATE":"2021-03-14","MEAN_MOTION_DOT":"0.00002012","RA_OF_ASC_NODE":"49.5213","PERIAPSIS":"546.218","MEAN_MOTION":"15.06384640","GP_ID":"214603260","CENTER_NAME":"EARTH","MEAN_MOTION_DDOT":"0.0000000000000","APOAPSIS":"548.303","OBJECT_ID":"2021-021J","COUNTRY_CODE":"US","REV_AT_EPOCH":"8909","DECAY_DATE":null,"TLE_LINE1":"1 47868U 21021J   22282.71436469  .00002012  00000-0  15402-3 0  9995","ARG_OF_PERICENTER":"82.2225","SEMIMAJOR_AXIS":"6925.396","OBJECT_NAME":"STARLINK-2323","PERIOD":"95.593","SITE":"AFETR","RCS_SIZE":"LARGE","INCLINATION":"53.0563","OBJECT_TYPE":"PAYLOAD","EPHEMERIS_TYPE":"0","BSTAR":"0.00015402000000","REF_FRAME":"TEME"},{"EPOCH":"2022-10-09T18:48:11.822688","LAUNCH_DATE":"2021-03-14","MEAN_MOTION_DOT":"0.00000849","TLE_LINE2":"2 47869  53.0535  99.1907 0001479  90.0554 270.0604 15.06404926 88503","FILE":"3598879","NORAD_CAT_ID":"47869","ECCENTRICITY":"0.00014790","TIME_SYSTEM":"UTC","ELEMENT_SET_NO":"999","CLASSIFICATION_TYPE":"U","MEAN_ELEMENT_THEORY":"SGP4","MEAN_ANOMALY":"270.0604","GP_ID":"214602011","MEAN_MOTION":"15.06404926","APOAPSIS":"548.223","MEAN_MOTION_DDOT":"0.0000000000000","CENTER_NAME":"EARTH","RA_OF_ASC_NODE":"99.1907","PERIAPSIS":"546.174","TLE_LINE1":"1 47869U 21021K   22282.78347017  .00000849  00000-0  75855-4 0  9998","OBJECT_NAME":"STARLINK-2324","SEMIMAJOR_AXIS":"6925.333","ARG_OF_PERICENTER":"90.0554","COUNTRY_CODE":"US","OBJECT_ID":"2021-021K","DECAY_DATE":null,"REV_AT_EPOCH":"8850","OBJECT_TYPE":"PAYLOAD","INCLINATION":"53.0535","RCS_SIZE":"LARGE","REF_FRAME":"TEME","BSTAR":"0.00007585500000","EPHEMERIS_TYPE":"0","PERIOD":"95.592","SITE":"AFETR"},{"INCLINATION":"53.0550","OBJECT_TYPE":"PAYLOAD","RCS_SIZE":"MEDIUM","REF_FRAME":"TEME","EPHEMERIS_TYPE":"0","BSTAR":"0.00021312000000","PERIOD":"95.592","SITE":"AFETR","TLE_LINE1":"1 47870U 21021L   22282.86778639  .00002894  00000-0  21312-3 0  9997","ARG_OF_PERICENTER":"85.3154","SEMIMAJOR_AXIS":"6925.347","OBJECT_NAME":"STARLINK-2326","COUNTRY_CODE":"US","OBJECT_ID":"2021-021L","DECAY_DATE":null,"REV_AT_EPOCH":"8795","MEAN_MOTION":"15.06400469","GP_ID":"214601758","APOAPSIS":"548.057","CENTER_NAME":"EARTH","MEAN_MOTION_DDOT":"0.0000000000000","RA_OF_ASC_NODE":"123.8249","PERIAPSIS":"546.367","EPOCH":"2022-10-09T20:49:36.744096","TLE_LINE2":"2 47870  53.0550 123.8249 0001220  85.3154 274.7974 15.06400469 87950","LAUNCH_DATE":"2021-03-14","MEAN_MOTION_DOT":"0.00002894","FILE":"3598879","TIME_SYSTEM":"UTC","NORAD_CAT_ID":"47870","ECCENTRICITY":"0.00012200","CLASSIFICATION_TYPE":"U","ELEMENT_SET_NO":"999","MEAN_ANOMALY":"274.7974","MEAN_ELEMENT_THEORY":"SGP4"},{"SITE":"AFETR","PERIOD":"95.592","EPHEMERIS_TYPE":"0","BSTAR":"0.00011351000000","REF_FRAME":"TEME","RCS_SIZE":"LARGE","INCLINATION":"53.0523","OBJECT_TYPE":"PAYLOAD","REV_AT_EPOCH":"8839","DECAY_DATE":null,"OBJECT_ID":"2021-021M","COUNTRY_CODE":"US","SEMIMAJOR_AXIS":"6925.342","TLE_LINE1":"1 47871U 21021M   22282.77978171  .00001410  00000-0  11351-3 0  9996","OBJECT_NAME":"STARLINK-2327","ARG_OF_PERICENTER":"82.8546","PERIAPSIS":"546.239","RA_OF_ASC_NODE":"99.2207","CENTER_NAME":"EARTH","MEAN_MOTION_DDOT":"0.0000000000000","APOAPSIS":"548.175","MEAN_MOTION":"15.06402200","GP_ID":"214602507","MEAN_ANOMALY":"277.2602","MEAN_ELEMENT_THEORY":"SGP4","CLASSIFICATION_TYPE":"U","ELEMENT_SET_NO":"999","NORAD_CAT_ID":"47871","FILE":"3598879","TIME_SYSTEM":"UTC","ECCENTRICITY":"0.00013980","TLE_LINE2":"2 47871  53.0523  99.2207 0001398  82.8546 277.2602 15.06402200 88394","MEAN_MOTION_DOT":"0.00001410","LAUNCH_DATE":"2021-03-14","EPOCH":"2022-10-09T18:42:53.139744"},{"REF_FRAME":"TEME","BSTAR":"0.00035556000000","EPHEMERIS_TYPE":"0","OBJECT_TYPE":"PAYLOAD","INCLINATION":"53.0524","RCS_SIZE":"LARGE","SITE":"AFETR","PERIOD":"92.316","ARG_OF_PERICENTER":"282.6345","TLE_LINE1":"1 47872U 21021N   22282.50599301  .00028736  00000-0  35556-3 0  9995","SEMIMAJOR_AXIS":"6766.217","OBJECT_NAME":"STARLINK-2328","DECAY_DATE":null,"REV_AT_EPOCH":"8975","COUNTRY_CODE":"US","OBJECT_ID":"2021-021N","APOAPSIS":"393.842","MEAN_MOTION_DDOT":"0.0000000000000","CENTER_NAME":"EARTH","GP_ID":"214559022","MEAN_MOTION":"15.59853572","PERIAPSIS":"382.323","RA_OF_ASC_NODE":"1.8401","LAUNCH_DATE":"2021-03-14","MEAN_MOTION_DOT":"0.00028736","TLE_LINE2":"2 47872  53.0524   1.8401 0008512 282.6345  77.3716 15.59853572 89759","ECCENTRICITY":"0.00085120","FILE":"3597861","NORAD_CAT_ID":"47872","TIME_SYSTEM":"UTC","EPOCH":"2022-10-09T12:08:37.796064","MEAN_ELEMENT_THEORY":"SGP4","MEAN_ANOMALY":"77.3716","ELEMENT_SET_NO":"999","CLASSIFICATION_TYPE":"U"},{"PERIOD":"95.592","SITE":"AFETR","RCS_SIZE":"LARGE","OBJECT_TYPE":"PAYLOAD","INCLINATION":"53.0542","BSTAR":"0.00010904000000","EPHEMERIS_TYPE":"0","REF_FRAME":"TEME","OBJECT_ID":"2021-021P","COUNTRY_CODE":"US","REV_AT_EPOCH":"8839","DECAY_DATE":null,"TLE_LINE1":"1 47873U 21021P   22282.82769473  .00001343  00000-0  10904-3 0  9995","SEMIMAJOR_AXIS":"6925.322","ARG_OF_PERICENTER":"86.2679","OBJECT_NAME":"STARLINK-2329","RA_OF_ASC_NODE":"98.9962","PERIAPSIS":"546.277","GP_ID":"214601512","MEAN_MOTION":"15.06408703","MEAN_MOTION_DDOT":"0.0000000000000","CENTER_NAME":"EARTH","APOAPSIS":"548.097","ELEMENT_SET_NO":"999","CLASSIFICATION_TYPE":"U","MEAN_ELEMENT_THEORY":"SGP4","MEAN_ANOMALY":"273.8460","EPOCH":"2022-10-09T19:51:52.824672","NORAD_CAT_ID":"47873","FILE":"3598879","TIME_SYSTEM":"UTC","ECCENTRICITY":"0.00013140","MEAN_MOTION_DOT":"0.00001343","LAUNCH_DATE":"2021-03-14","TLE_LINE2":"2 47873  53.0542  98.9962 0001314  86.2679 273.8460 15.06408703 88392"}];
